{
  "norad_id": 59407,
  "name": "STARLINK-31387",
  "history": [
    {
      "epoch": "2026-03-28T22:02:42.368352Z",
      "apogee_km": 483.5419102964879,
      "perigee_km": 482.46841599364234,
      "latitude_deg": -1.2633592821772274e-05,
      "longitude_deg": 150.82335561193315,
      "height_km": 483.07077852942643,
      "semi_major_axis_km": 6861.142163145065,
      "eccentricity": 7.823e-05,
      "inclination_deg": 43.0002,
      "raan_deg": 307.832,
      "arg_perigee_deg": 237.3493,
      "mean_anomaly_deg": 122.7283,
      "mean_motion_rev_day": 15.27594672
    },
    {
      "epoch": "2026-03-28T23:36:51.881184Z",
      "apogee_km": 483.96458869531034,
      "perigee_km": 482.0791422390794,
      "latitude_deg": 1.054053173043859e-05,
      "longitude_deg": 126.8505942635824,
      "height_km": 482.7124229184083,
      "semi_major_axis_km": 6861.158865467194,
      "eccentricity": 0.0001374,
      "inclination_deg": 43.0031,
      "raan_deg": 307.4633,
      "arg_perigee_deg": 275.263,
      "mean_anomaly_deg": 84.8065,
      "mean_motion_rev_day": 15.27589094
    },
    {
      "epoch": "2026-03-29T23:09:13.923072Z",
      "apogee_km": 483.6005408565852,
      "perigee_km": 482.540895936555,
      "latitude_deg": 5.189311364595882e-05,
      "longitude_deg": 127.25336653395365,
      "height_km": 482.8216815455579,
      "semi_major_axis_km": 6861.207718396569,
      "eccentricity": 7.722e-05,
      "inclination_deg": 43.0026,
      "raan_deg": 301.9246,
      "arg_perigee_deg": 272.7564,
      "mean_anomaly_deg": 87.32,
      "mean_motion_rev_day": 15.27572779
    },
    {
      "epoch": "2026-03-30T14:50:47.792544Z",
      "apogee_km": 483.91571689431385,
      "perigee_km": 482.2129039530937,
      "latitude_deg": -4.149129692316909e-05,
      "longitude_deg": -112.47673310744815,
      "height_km": 482.6919345114176,
      "semi_major_axis_km": 6861.201310423704,
      "eccentricity": 0.00012409,
      "inclination_deg": 43.0023,
      "raan_deg": 298.2302,
      "arg_perigee_deg": 280.0933,
      "mean_anomaly_deg": 79.9778,
      "mean_motion_rev_day": 15.27574919
    },
    {
      "epoch": "2026-03-30T21:07:24.818304Z",
      "apogee_km": 483.83186606358413,
      "perigee_km": 482.2561272358935,
      "latitude_deg": 1.1263853770035867e-05,
      "longitude_deg": 151.63506420818044,
      "height_km": 482.690765473124,
      "semi_major_axis_km": 6861.1809966497385,
      "eccentricity": 0.00011483,
      "inclination_deg": 43.0029,
      "raan_deg": 296.754,
      "arg_perigee_deg": 279.5008,
      "mean_anomaly_deg": 80.5714,
      "mean_motion_rev_day": 15.27581703
    },
    {
      "epoch": "2026-03-31T12:48:59.029056Z",
      "apogee_km": 483.87779496597796,
      "perigee_km": 482.2691155626362,
      "latitude_deg": 3.165522332933492e-05,
      "longitude_deg": -88.09613984290739,
      "height_km": 482.79659806171077,
      "semi_major_axis_km": 6861.210455264307,
      "eccentricity": 0.00011723,
      "inclination_deg": 42.9998,
      "raan_deg": 293.0598,
      "arg_perigee_deg": 273.8029,
      "mean_anomaly_deg": 86.2689,
      "mean_motion_rev_day": 15.27571865
    },
    {
      "epoch": "2026-04-01T20:12:06.893280Z",
      "apogee_km": 483.8731471828469,
      "perigee_km": 482.24292724200404,
      "latitude_deg": -4.0421169983231346e-05,
      "longitude_deg": 152.44955997300767,
      "height_km": 482.8594186125387,
      "semi_major_axis_km": 6861.195037212425,
      "eccentricity": 0.0001188,
      "inclination_deg": 43.004,
      "raan_deg": 285.6773,
      "arg_perigee_deg": 268.2838,
      "mean_anomaly_deg": 91.7877,
      "mean_motion_rev_day": 15.27577014
    },
    {
      "epoch": "2026-04-02T19:44:26.166912Z",
      "apogee_km": 484.00542118453905,
      "perigee_km": 481.9997728575381,
      "latitude_deg": 8.021542414519071e-07,
      "longitude_deg": 152.86129836883518,
      "height_km": 482.59427221000726,
      "semi_major_axis_km": 6861.139597021039,
      "eccentricity": 0.00014616,
      "inclination_deg": 43.0017,
      "raan_deg": 280.136,
      "arg_perigee_deg": 280.6465,
      "mean_anomaly_deg": 79.4222,
      "mean_motion_rev_day": 15.27595529
    },
    {
      "epoch": "2026-04-03T20:50:57.128928Z",
      "apogee_km": 483.7217972345061,
      "perigee_km": 482.35505109001315,
      "latitude_deg": -3.635756225987163e-05,
      "longitude_deg": 129.29307681645017,
      "height_km": 482.7940602143321,
      "semi_major_axis_km": 6861.175424162259,
      "eccentricity": 9.96e-05,
      "inclination_deg": 43.0011,
      "raan_deg": 274.228,
      "arg_perigee_deg": 271.7483,
      "mean_anomaly_deg": 88.3254,
      "mean_motion_rev_day": 15.27583564
    },
    {
      "epoch": "2026-04-04T20:23:18.637728Z",
      "apogee_km": 483.71376030300326,
      "perigee_km": 482.47599407235884,
      "latitude_deg": -6.712397226645402e-06,
      "longitude_deg": 129.70056258388206,
      "height_km": 482.6062620837224,
      "semi_major_axis_km": 6861.231877187681,
      "eccentricity": 9.02e-05,
      "inclination_deg": 42.9992,
      "raan_deg": 268.6918,
      "arg_perigee_deg": 295.3282,
      "mean_anomaly_deg": 64.7476,
      "mean_motion_rev_day": 15.27564711
    },
    {
      "epoch": "2026-04-05T12:04:52.896864Z",
      "apogee_km": 483.7223885091844,
      "perigee_km": 482.46321561590867,
      "latitude_deg": 3.5924550220354687e-06,
      "longitude_deg": -110.03325630974234,
      "height_km": 482.8045571527871,
      "semi_major_axis_km": 6861.229802062546,
      "eccentricity": 9.176e-05,
      "inclination_deg": 42.9981,
      "raan_deg": 264.9952,
      "arg_perigee_deg": 275.8642,
      "mean_anomaly_deg": 84.2105,
      "mean_motion_rev_day": 15.27565404
    },
    {
      "epoch": "2026-04-05T18:21:30.366720Z",
      "apogee_km": 483.8319005642952,
      "perigee_km": 482.34027066548333,
      "latitude_deg": 3.516921535099439e-05,
      "longitude_deg": 154.0750621886055,
      "height_km": 483.00921565901746,
      "semi_major_axis_km": 6861.223085614889,
      "eccentricity": 0.0001087,
      "inclination_deg": 42.9995,
      "raan_deg": 263.5174,
      "arg_perigee_deg": 258.6489,
      "mean_anomaly_deg": 101.4241,
      "mean_motion_rev_day": 15.27567647
    },
    {
      "epoch": "2026-04-05T18:21:30.367584Z",
      "apogee_km": 483.8317603451096,
      "perigee_km": 482.34040489587096,
      "latitude_deg": 3.3627977836919205e-05,
      "longitude_deg": 154.07505693507989,
      "height_km": 483.009185659407,
      "semi_major_axis_km": 6861.22308262049,
      "eccentricity": 0.00010868,
      "inclination_deg": 42.9995,
      "raan_deg": 263.5174,
      "arg_perigee_deg": 258.6489,
      "mean_anomaly_deg": 101.4241,
      "mean_motion_rev_day": 15.27567648
    },
    {
      "epoch": "2026-04-07T11:09:34.684992Z",
      "apogee_km": 483.84347941313445,
      "perigee_km": 482.3355190531329,
      "latitude_deg": -6.580378530584135e-06,
      "longitude_deg": -109.21842512409292,
      "height_km": 482.7518922395179,
      "semi_major_axis_km": 6861.226499233133,
      "eccentricity": 0.00010989,
      "inclination_deg": 43.0002,
      "raan_deg": 253.9176,
      "arg_perigee_deg": 278.7027,
      "mean_anomaly_deg": 81.37,
      "mean_motion_rev_day": 15.27566507
    },
    {
      "epoch": "2026-04-08T10:41:54.982464Z",
      "apogee_km": 483.6484129648761,
      "perigee_km": 482.4364542297253,
      "latitude_deg": 2.817500744078608e-05,
      "longitude_deg": -108.80937501167458,
      "height_km": 482.5400869850801,
      "semi_major_axis_km": 6861.179433597301,
      "eccentricity": 8.832e-05,
      "inclination_deg": 42.9973,
      "raan_deg": 248.3779,
      "arg_perigee_deg": 297.3336,
      "mean_anomaly_deg": 62.7426,
      "mean_motion_rev_day": 15.27582225
    },
    {
      "epoch": "2026-04-09T16:30:53.209440Z",
      "apogee_km": 483.7754430815876,
      "perigee_km": 482.3263601967619,
      "latitude_deg": 1.9372465005379796e-05,
      "longitude_deg": 155.70809272363158,
      "height_km": 482.6385781654876,
      "semi_major_axis_km": 6861.187901639175,
      "eccentricity": 0.0001056,
      "inclination_deg": 42.9996,
      "raan_deg": 241.3625,
      "arg_perigee_deg": 285.0946,
      "mean_anomaly_deg": 74.9789,
      "mean_motion_rev_day": 15.27579397
    },
    {
      "epoch": "2026-04-10T09:46:36.539904Z",
      "apogee_km": 483.71279954248257,
      "perigee_km": 482.40093927465114,
      "latitude_deg": -4.519950227388301e-06,
      "longitude_deg": -107.99360487345211,
      "height_km": 482.8167946766289,
      "semi_major_axis_km": 6861.193869408567,
      "eccentricity": 9.56e-05,
      "inclination_deg": 42.9994,
      "raan_deg": 237.3003,
      "arg_perigee_deg": 271.4267,
      "mean_anomaly_deg": 88.6475,
      "mean_motion_rev_day": 15.27577404
    },
    {
      "epoch": "2026-04-11T15:35:35.473632Z",
      "apogee_km": 483.5955035107827,
      "perigee_km": 482.57455367292823,
      "latitude_deg": 1.3184917967745083e-06,
      "longitude_deg": 156.52092690373658,
      "height_km": 482.92371834185667,
      "semi_major_axis_km": 6861.222028591856,
      "eccentricity": 7.44e-05,
      "inclination_deg": 42.9993,
      "raan_deg": 230.2849,
      "arg_perigee_deg": 262.9502,
      "mean_anomaly_deg": 97.1265,
      "mean_motion_rev_day": 15.27568
    },
    {
      "epoch": "2026-04-13T00:32:52.713312Z",
      "apogee_km": 483.5686506005768,
      "perigee_km": 482.7499607253849,
      "latitude_deg": -1.2498387177639973e-05,
      "longitude_deg": 13.088874041151595,
      "height_km": 482.93665095483703,
      "semi_major_axis_km": 6861.296305662981,
      "eccentricity": 5.966e-05,
      "inclination_deg": 42.9978,
      "raan_deg": 222.5281,
      "arg_perigee_deg": 269.777,
      "mean_anomaly_deg": 90.3013,
      "mean_motion_rev_day": 15.27543195
    },
    {
      "epoch": "2026-04-14T14:12:37.865088Z",
      "apogee_km": 483.7029262102178,
      "perigee_km": 482.42674266901304,
      "latitude_deg": -6.207179117629587e-05,
      "longitude_deg": 157.74254459700674,
      "height_km": 482.75779829074014,
      "semi_major_axis_km": 6861.201834439616,
      "eccentricity": 9.3e-05,
      "inclination_deg": 42.9992,
      "raan_deg": 213.6667,
      "arg_perigee_deg": 277.4972,
      "mean_anomaly_deg": 82.5773,
      "mean_motion_rev_day": 15.27574744
    },
    {
      "epoch": "2026-04-15T13:44:57.594048Z",
      "apogee_km": 483.86553381405975,
      "perigee_km": 482.1886653081265,
      "latitude_deg": 2.2646269335060923e-05,
      "longitude_deg": 158.15502798400658,
      "height_km": 482.6975631643618,
      "semi_major_axis_km": 6861.164099561092,
      "eccentricity": 0.0001222,
      "inclination_deg": 42.9999,
      "raan_deg": 208.128,
      "arg_perigee_deg": 277.2687,
      "mean_anomaly_deg": 82.8026,
      "mean_motion_rev_day": 15.27587346
    },
    {
      "epoch": "2026-04-16T14:51:28.466208Z",
      "apogee_km": 484.0209743342839,
      "perigee_km": 482.09572291945915,
      "latitude_deg": -2.9245592673700727e-05,
      "longitude_deg": 134.58626811169978,
      "height_km": 482.6987754524037,
      "semi_major_axis_km": 6861.195348626871,
      "eccentricity": 0.0001403,
      "inclination_deg": 43.0006,
      "raan_deg": 202.2191,
      "arg_perigee_deg": 278.1433,
      "mean_anomaly_deg": 81.9259,
      "mean_motion_rev_day": 15.2757691
    }
  ]
}